AMC-1 (GE-1)            
1 24315U 96054A   22302.34241773  .00000072  00000+0  00000+0 0  9996
2 24315   5.9336  71.9848 0002894 145.3087 172.7493  1.00264104 95714
AMC-3 (GE-3)            
1 24936U 97050A   22301.43725220 -.00000250  00000+0  00000+0 0  9994
2 24936   4.8667  78.1982 0002746 130.0567 273.9481  1.00270830 39123
ASTRA 1G                
1 25071U 97076A   22301.52724304  .00000124  00000+0  00000+0 0  9994
2 25071   6.5465  67.2379 0003172 147.1510  31.6796  1.00270646 91197
ASTRA 2A                
1 25462U 98050A   22301.46306353  .00000078  00000+0  00000+0 0  9992
2 25462   3.7325  84.0999 0002878 128.6511  47.9975  1.00273936 33029
AMC-4 (GE-4)            
1 25954U 99060A   22301.54275122  .00000097  00000+0  00000+0 0  9999
2 25954   1.8514  90.2407 0002775 132.5519 234.5911  1.00270520 30246
NSS-11 (AAP-1)          
1 26554U 00059A   22302.27581505  .00000031  00000+0  00000+0 0  9990
2 26554   0.0482  69.6945 0002101 131.4423 111.7793  1.00270907 80866
AMC-6 (GE-6)            
1 26580U 00067A   22301.66173458  .00000113  00000+0  00000+0 0  9995
2 26580   0.0074 290.7561 0002469 281.2170 284.2483  1.00270949 80603
ASTRA 2D                
1 26638U 00081A   22301.87410696  .00000137  00000+0  00000+0 0  9992
2 26638   7.5737  59.3783 0001662 157.4559 158.7431  1.00269601 80071
AMC-8 (GE-8)            
1 26639U 00081B   22301.54275064  .00000097  00000+0  00000+0 0  9990
2 26639   2.7781  87.1050 0001427  58.0201 312.1513  1.00273206 80021
ASTRA 2C                
1 26853U 01025A   22301.43716500 -.00000249  00000+0  00000+0 0  9990
2 26853   4.8909  78.0042 0002837 144.2322 259.4721  1.00271454 31733
ASTRA 3A                
1 27400U 02015B   22301.36260862 -.00000194  00000+0  00000+0 0  9995
2 27400   7.6706  58.2680 0001616 169.9292 212.2943  1.00270758 75412
NSS-7                   
1 27414U 02019A   22301.23239867 -.00000147  00000+0  00000+0 0  9999
2 27414   6.2071  70.1931 0002355 159.4183 230.6377  1.00271902 75252
NSS-6                   
1 27603U 02057A   22302.16993959  .00000115  00000+0  00000+0 0  9997
2 27603   1.9442  90.0231 0003475 131.3804  67.7963  1.00270515 72721
AMC-11 (GE-11)          
1 28252U 04017A   22302.34210774  .00000075  00000+0  00000+0 0  9998
2 28252   0.0370  66.2006 0002569 145.0355 178.5921  1.00270926 67391
AMC-15                  
1 28446U 04041A   22302.19373421 -.00000082  00000+0  00000+0 0  9991
2 28446   0.0235 340.9316 0002582 242.3573 138.9384  1.00271666 66046
NSS-10 (AMC-12)         
1 28526U 05003A   22302.02827147 -.00000242  00000+0  00000+0 0  9998
2 28526   3.1134  85.8672 0002795 125.6768 158.5593  1.00270945 65017
ASTRA 1KR               
1 29055U 06012A   22301.72731756  .00000128  00000+0  00000+0 0  9995
2 29055   0.0274 113.3791 0004842 104.6752 100.0408  1.00271852 32413
AMC-18                  
1 29644U 06054B   22301.43507219 -.00000206  00000+0  00000+0 0  9996
2 29644   0.0521  72.2980 0002536 145.8173 252.2985  1.00271512 58238
ASTRA 1L                
1 31306U 07016A   22301.72731799  .00000128  00000+0  00000+0 0  9999
2 31306   0.0486  35.7974 0004069 217.5456  64.7331  1.00271014 31696
ASTRA 4A (SIRIUS 4)     
1 32299U 07057A   22301.30915478  .00000042  00000+0  00000+0 0  9993
2 32299   0.0078   5.6829 0002615 199.6649 307.4134  1.00271293 54646
AMC-21                  
1 33275U 08038B   22301.55612865  .00000045  00000+0  00000+0 0  9992
2 33275   0.0576  71.5410 0002522 151.0059 249.6620  1.00269951 52188
ASTRA 1M                
1 33436U 08057A   22301.72731787  .00000128  00000+0  00000+0 0  9998
2 33436   0.0653  89.9298 0004246  90.5433 137.6391  1.00269202 32412
CIEL-2                  
1 33453U 08063A   22301.55110524  .00000067  00000+0  00000+0 0  9997
2 33453   0.0370 110.7307 0002894  97.3573 258.3595  1.00270329 50811
NSS-9                   
1 33749U 09008A   22301.80257865  .00000080  00000+0  00000+0 0  9998
2 33749   0.0213 337.3170 0001891 234.7103 297.1225  1.00271294 50253
SES-7 (PROTOSTAR 2)     
1 34941U 09027A   22302.02479679 -.00000338  00000+0  00000+0 0  9995
2 34941   0.0907  86.7139 0001544 156.7902 271.0556  1.00271012 49303
NSS-12                  
1 36032U 09058A   22301.17606721  .00000081  00000+0  00000+0 0  9991
2 36032   0.0148 303.7462 0002820 282.1042 291.0811  1.00272868 47608
SES-1                   
1 36516U 10016A   22301.79999579 -.00000106  00000+0  00000+0 0  9997
2 36516   0.0187  24.9377 0002435 189.6668   9.5405  1.00271395 45739
ASTRA 3B                
1 36581U 10021A   22301.84835927  .00000145  00000+0  00000+0 0  9999
2 36581   0.0489   5.1696 0004221 210.7600 150.1935  1.00271607 45566
SES-3                   
1 37748U 11035A   22301.55820753 -.00000093  00000+0  00000+0 0  9993
2 37748   0.0603  72.0053 0002596 128.3235 294.5282  1.00270631 41280
ASTRA 1N                
1 37775U 11041A   22301.83766007  .00000128  00000+0  00000+0 0  9990
2 37775   0.0742  57.9066 0000783  28.1897 271.8699  1.00269521 31215
SES-2                   
1 37809U 11049A   22302.20321451 -.00000190  00000+0  00000+0 0  9998
2 37809   0.0112 295.8132 0002326 278.3218 169.5782  1.00271788 40698
QUETZSAT 1              
1 37826U 11054A   22301.79494515 -.00000233  00000+0  00000+0 0  9996
2 37826   0.0206 304.5143 0002724 253.9629  47.8589  1.00271491 36574
SES-4                   
1 38087U 12007A   22301.37551429 -.00000158  00000+0  00000+0 0  9993
2 38087   0.0187 317.9365 0002264 259.4419 292.5294  1.00272482 39175
SES-5                   
1 38652U 12036A   22301.40674324  .00000043  00000+0  00000+0 0  9999
2 38652   0.0612 291.0881 0001944 280.7334 336.3455  1.00270211 31174
ASTRA 2F                
1 38778U 12051A   22301.85329021  .00000158  00000+0  00000+0 0  9992
2 38778   0.0491 237.4472 0004338 342.3782 152.7479  1.00271006 27815
SES-6                   
1 39172U 13026A   22301.44353063 -.00000252  00000+0  00000+0 0  9998
2 39172   0.0222 333.3061 0002597 240.7246 301.9337  1.00270375 34410
O3B FM5                 
1 39188U 13031A   22300.60486420 -.00000012  00000+0  00000+0 0  9996
2 39188   0.0657  14.7356 0002718 206.5221 138.7302  5.00115251170564
O3B FM4                 
1 39189U 13031B   22301.26052046 -.00000013  00000+0  00000+0 0  9994
2 39189   0.0479 352.5743 0002652 228.3363 139.0776  5.00115792170622
O3B FM2                 
1 39190U 13031C   22301.75173957 -.00000014  00000+0  00000+0 0  9996
2 39190   0.0467 346.4485 0002666 233.7190 139.8206  5.00115078170699
O3B PFM                 
1 39191U 13031D   22301.77802337 -.00000014  00000+0  00000+0 0  9990
2 39191   0.0579  10.2865 0002693 207.5464 142.1560  5.00115685170251
ASTRA 2E                
1 39285U 13056A   22301.73420750  .00000159  00000+0  00000+0 0  9991
2 39285   0.0777 322.1187 0002700 254.9737 112.7700  1.00273860 33124
SES-8                   
1 39460U 13071A   22301.81793698 -.00000262  00000+0  00000+0 0  9992
2 39460   0.0150 245.3561 0001316 282.9821 258.2817  1.00271835 31115
ASTRA 5B                
1 39617U 14011B   22302.01854984  .00000162  00000+0  00000+0 0  9998
2 39617   0.0615 307.8650 0003936 259.9847 227.7041  1.00270017 31560
O3B FM3                 
1 40079U 14038A   22301.23314771 -.00000013  00000+0  00000+0 0  9995
2 40079   0.0523 359.9332 0004738 196.8777 163.1814  5.00115305146615
O3B FM7                 
1 40080U 14038B   22301.77888808 -.00000014  00000+0  00000+0 0  9994
2 40080   0.0535 355.3171 0002194 265.8998  98.7661  5.00115589151474
O3B FM6                 
1 40081U 14038C   22300.60593002 -.00000012  00000+0  00000+0 0  9993
2 40081   0.0515 359.5311 0002781 218.3880 142.0697  5.00115271151357
O3B FM8                 
1 40082U 14038D   22301.25950190 -.00000013  00000+0  00000+0 0  9992
2 40082   0.0488 357.4159 0002652 217.2650 145.3100  5.00115639151515
O3B FM10                
1 40348U 14083A   22301.28560044 -.00000013  00000+0  00000+0 0  9995
2 40348   0.0527   9.5876 0002668 208.0445 142.3574  5.00115106143468
O3B FM11                
1 40349U 14083B   22301.29903657 -.00000013  00000+0  00000+0 0  9998
2 40349   0.0569   7.1398 0002726 225.3302 127.5133  5.00115345143480
O3B FM12                
1 40350U 14083C   22301.72603634 -.00000014  00000+0  00000+0 0  9991
2 40350   0.0560   6.7288 0002830 213.3706 139.8875  5.00115198143516
O3B FM9                 
1 40351U 14083D   22301.55296629 -.00000014  00000+0  00000+0 0  9995
2 40351   0.0581   6.8952 0002651 212.0974 140.9962  5.00116078143645
ASTRA 2G                
1 40364U 14089A   22302.01854984  .00000157  00000+0  00000+0 0  9998
2 40364   0.0482  35.5279 0001716  61.9089 334.8058  1.00269199 28718
SES-9                   
1 41380U 16013A   22301.32973407 -.00000336  00000+0  00000+0 0  9991
2 41380   0.0213 283.2711 0001259 218.7109 121.7096  1.00270990 24126
SES-10                  
1 42432U 17017A   22301.79703796 -.00000265  00000+0  00000+0 0  9999
2 42432   0.0128 287.4840 0002622 290.8322  38.8643  1.00272317 20411
SES-15                  
1 42709U 17026A   22302.32211662  .00000066  00000+0  00000+0 0  9990
2 42709   0.0300   5.2958 0000269 168.7690 210.4031  1.00267519 20880
SES-11 (ECHOSTAR 105)   
1 42967U 17063A   22301.55487150 -.00000080  00000+0  00000+0 0  9995
2 42967   0.0135 275.3210 0002792 303.4680 272.9258  1.00271626 18417
SES-14                  
1 43175U 18012B   22302.10292691 -.00000271  00000+0  00000+0 0  9990
2 43175   0.0241 289.7981 0000878 264.6625 192.5417  1.00271530 17744
O3B FM15                
1 43231U 18024A   22302.21858091 -.00000015  00000+0  00000+0 0  9996
2 43231   0.0501  11.9789 0003003 207.6915 140.3152  5.00116038 84813
O3B FM16                
1 43232U 18024B   22301.47242125 -.00000014  00000+0  00000+0 0  9998
2 43232   0.0476  15.9798 0002979 203.7374 140.2690  5.00115852 84523
O3B FM14                
1 43233U 18024C   22301.71199616 -.00000014  00000+0  00000+0 0  9992
2 43233   0.0463  17.0308 0002861 205.8611 137.0937  5.00115287 84549
O3B FM13                
1 43234U 18024D   22301.36574349 -.00000013  00000+0  00000+0 0  9993
2 43234   0.0595  13.5736 0003803 208.5399 137.8653  5.00115219 84641
SES-12                  
1 43488U 18049A   22302.13868896 -.00000263  00000+0  00000+0 0  9997
2 43488   0.0462  71.9304 0002030 179.6002 290.8813  1.00271820 16105
O3B FM20                
1 44112U 19020A   22300.73924226 -.00000012  00000+0  00000+0 0  9998
2 44112   0.0522   8.9883 0003220 215.1802 135.8141  5.00115408 65104
O3B FM19                
1 44113U 19020B   22301.36574466 -.00000013  00000+0  00000+0 0  9997
2 44113   0.0744  16.0544 0001951 229.7562 114.1771  5.00115083 65016
O3B FM17                
1 44114U 19020C   22301.24632215 -.00000013  00000+0  00000+0 0  9992
2 44114   0.0333   2.1143 0003121 217.1274 140.7438  5.00115570 65098
O3B FM18                
1 44115U 19020D   22301.39271652 -.00000013  00000+0  00000+0 0  9993
2 44115   0.0526   9.1772 0002919 207.9834 142.8273  5.00115719 65221
SES-17                  
1 49332U 21095A   22302.01646615 -.00000265  00000+0  00000+0 0  9998
2 49332   0.0104 227.2708 0001447 331.2452 137.6704  1.00273558  4522
SES-22                  
1 52933U 22071A   22300.99434160  .00000099  00000+0  00000+0 0  9993
2 52933   0.0124 267.9935 0002679 318.8319  32.5064  1.00273253  1238
